STARLINK-2424           
1 47834U 21018AZ  26068.72493993  .00003758  00000+0  13895-3 0  9997
2 47834  53.1586 244.8681 0001251  87.0347 273.0797 15.30202261276751
JINJUSAT-1B             
1 63210U 25052A   26068.66363707  .00019955  00000+0  68430-3 0  9998
2 63210  97.4113 325.4613 0005550  82.1930 277.9941 15.30194857 54866
